OBJECT_NAME,OBJECT_ID,EPOCH,MEAN_MOTION,ECCENTRICITY,INCLINATION,RA_OF_ASC_NODE,ARG_OF_PERICENTER,MEAN_ANOMALY,EPHEMERIS_TYPE,CLASSIFICATION_TYPE,NORAD_CAT_ID,ELEMENT_SET_NO,REV_AT_EPOCH,BSTAR,MEAN_MOTION_DOT,MEAN_MOTION_DDOT
APRIZESAT 2,2004-025A,2026-07-13T05:42:57.098304,14.38047098,.01058066,98.1038,358.7468,170.7622,189.5546,0,U,28366,999,15538,.47016559E-4,.11E-5,0
SAUDICOMSAT 1,2004-025D,2026-07-13T00:03:01.369152,14.55492672,.00310794,98.5776,204.8308,305.8417,53.9894,0,U,28369,999,16788,.48827673E-4,.164E-5,0
SAUDICOMSAT 2,2004-025E,2026-07-13T06:41:07.110528,14.49993812,.00555042,98.6642,207.2625,179.4847,180.6413,0,U,28370,999,16388,.38353091E-4,.102E-5,0
APRIZESAT 1,2004-025G,2026-07-13T06:40:11.748000,14.51791387,.00458019,98.6309,205.7138,76.3394,284.2895,0,U,28372,999,16569,.44426963E-4,.132E-5,0
NANOSAT-1,2004-049B,2026-07-13T04:40:54.502464,14.80208662,.0003647,98.2306,331.4971,190.5899,169.5236,0,U,28493,999,15929,.75140965E-4,.516E-5,0
SAUDICOMSAT 7,2007-012C,2026-07-12T21:51:08.976384,14.66135309,.00568922,98.3796,168.5710,115.2932,245.4180,0,U,31119,999,2620,.55612845E-4,.26E-5,0
SAUDICOMSAT 6,2007-012E,2026-07-12T21:10:03.033120,14.62583472,.0070449,98.4115,161.8794,246.4382,112.9408,0,U,31121,999,2394,.45549257E-4,.185E-5,0
SAUDICOMSAT 5,2007-012H,2026-07-13T04:31:41.924352,14.68190655,.00483557,98.3509,169.5966,45.0285,315.4824,0,U,31124,999,2741,.67172439E-4,.34E-5,0
SAUDICOMSAT 3,2007-012J,2026-07-13T04:07:48.463680,14.70747955,.00383855,98.3162,170.1263,331.7468,28.1655,0,U,31125,999,2864,.74360505E-4,.404E-5,0
SAUDICOMSAT 4,2007-012L,2026-07-13T04:27:06.780096,14.64534388,.00634217,98.4002,167.2888,175.9975,184.1748,0,U,31127,999,2509,.47437781E-4,.205E-5,0
APRIZESAT 4,2009-041D,2026-07-12T17:54:13.260384,14.83911924,.0042095,98.1404,269.5752,237.6607,122.0528,0,U,35684,999,91515,.48022592E-4,.345E-5,0
S-NET D,2018-014G,2026-07-12T17:29:07.648800,15.16904418,.00063893,97.5340,98.3608,295.6032,64.4541,0,U,43186,999,46263,.14005201E-3,.2692E-4,0
S-NET B,2018-014H,2026-07-13T03:16:17.779296,15.16876626,.00069298,97.5344,98.7534,287.5249,72.5227,0,U,43187,999,46269,.14811181E-3,.2849E-4,0
S-NET A,2018-014J,2026-07-13T04:32:14.198208,15.16915568,.00068357,97.5355,99.0197,288.4981,71.5509,0,U,43188,999,46270,.13714464E-3,.2636E-4,0
S-NET C,2018-014K,2026-07-13T04:57:04.173120,15.16868362,.00081462,97.5373,99.1155,278.8118,81.2193,0,U,43189,999,46125,.14959163E-3,.2878E-4,0
SALSAT,2020-068K,2026-07-12T21:56:02.165280,15.30153171,.00089225,97.8853,198.5521,201.3461,158.7407,0,U,46495,999,31929,.16824237E-3,.4828E-4,0
OOV-CUBE (TUBSAT-30),2024-128F,2026-07-13T06:30:15.082560,15.02869223,.00413775,61.9937,134.6127,139.5955,220.8222,0,U,60240,999,11003,.9485134E-4,.1084E-4,0
LPNTSAT-001 (IOD-1),2026-065A,2026-07-12T23:20:08.918880,15.18662692,.00146069,97.3989,73.9344,275.0724,84.8843,0,U,68408,999,1617,.7342278E-4,.1457E-4,0
CHUANG XIN 26 (CX-26),2026-158A,2026-07-13T07:17:50.530848,14.25122245,.00048848,49.9860,288.3997,293.5714,66.4686,0,U,69972,999,43,-.46547489E-4,-.27E-5,0
